[
    {
        "CCSDS_OMM_VERS": "3.0",
        "COMMENT": "GENERATED VIA SPACE-TRACK.ORG API",
        "CREATION_DATE": "2025-04-14T03:05:54",
        "ORIGINATOR": "18 SPCS",
        "OBJECT_NAME": "BEIDOU 4",
        "OBJECT_ID": "2010-024A",
        "CENTER_NAME": "EARTH",
        "REF_FRAME": "TEME",
        "TIME_SYSTEM": "UTC",
        "MEAN_ELEMENT_THEORY": "SGP4",
        "EPOCH": "2025-04-13T22:34:27.149664",
        "MEAN_MOTION": "1.00274979",
        "ECCENTRICITY": "0.00090580",
        "INCLINATION": "3.5021",
        "RA_OF_ASC_NODE": "62.3632",
        "ARG_OF_PERICENTER": "332.3125",
        "MEAN_ANOMALY": "225.8323",
        "EPHEMERIS_TYPE": "0",
        "CLASSIFICATION_TYPE": "U",
        "NORAD_CAT_ID": "36590",
        "ELEMENT_SET_NO": "999",
        "REV_AT_EPOCH": "5446",
        "BSTAR": "0.00000000000000",
        "MEAN_MOTION_DOT": "-0.00000126",
        "MEAN_MOTION_DDOT": "0.0000000000000",
        "SEMIMAJOR_AXIS": "42163.837",
        "PERIOD": "1436.051",
        "APOAPSIS": "35823.894",
        "PERIAPSIS": "35747.510",
        "OBJECT_TYPE": "PAYLOAD",
        "RCS_SIZE": "LARGE",
        "COUNTRY_CODE": "PRC",
        "LAUNCH_DATE": "2010-06-02",
        "SITE": "XSC",
        "DECAY_DATE": null,
        "FILE": "4701263",
        "GP_ID": "285534412",
        "TLE_LINE0": "0 BEIDOU 4",
        "TLE_LINE1": "1 36590U 10024A   25103.94059201 -.00000126  00000-0  00000-0 0  9991",
        "TLE_LINE2": "2 36590   3.5021  62.3632 0009058 332.3125 225.8323  1.00274979 54462"
    }
]